NORAD_CAT_ID,OBJECT_NAME,OBJECT_TYPE,EPOCH,MEAN_MOTION,ECCENTRICITY,INCLINATION,RA_OF_ASC_NODE,ARG_OF_PERICENTER,MEAN_ANOMALY,BSTAR,MEAN_MOTION_DOT,MEAN_MOTION_DDOT,TLE_LINE0,TLE_LINE1,TLE_LINE2,SEMIMAJOR_AXIS,PERIOD,APOGEE,PERIGEE,DECAYED
53611.0,STARLINK-4650,PAYLOAD,2023-11-26 12:52:13,15.09916838,0.0003102,53.2179,18.9642,57.8437,302.2856,0.0021,0.00034302,0.0,0 STARLINK-4650,1 53611U 22104Z   23330.53626601  .00034302  00000-0  21000-2 0  9992,2 53611  53.2179  18.9642 0003102  57.8437 302.2856 15.09916838 69826,6914.591,95.369,538.601,534.311,0.0
53611.0,STARLINK-4650,PAYLOAD,2023-11-27 09:31:19,15.09979153,0.0003865,53.2179,15.0972,52.1071,308.0271,0.0017866,0.0002917,0.0,0 STARLINK-4650,1 53611U 22104Z   23331.39675232  .00029170  00000-0  17866-2 0  9993,2 53611  53.2179  15.0972 0003865  52.1071 308.0271 15.09979153 69956,6914.401,95.366,538.938,533.593,0.0
53611.0,STARLINK-4650,PAYLOAD,2023-11-28 09:20:58,15.10081677,0.0004025,53.2187,10.6288,56.178,303.9596,0.0026326,0.00043331,0.0,0 STARLINK-4650,1 53611U 22104Z   23332.38956207  .00043331  00000-0  26326-2 0  9993,2 53611  53.2187  10.6288 0004025  56.1780 303.9596 15.10081677 69418,6914.088,95.359,538.736,533.17,0.0
53611.0,STARLINK-4650,PAYLOAD,2023-11-29 09:10:31,15.10172572,0.0003907,53.2186,6.1645,63.7141,296.4252,0.0025581,0.00042195,0.0,0 STARLINK-4650,1 53611U 22104Z   23333.38231162  .00042195  00000-0  25581-2 0  9999,2 53611  53.2186   6.1645 0003907  63.7141 296.4252 15.10172572 70251,6913.81,95.353,538.376,532.974,0.0
53611.0,STARLINK-4650,PAYLOAD,2023-11-30 07:24:42,15.1025554,0.0003999,53.2186,1.9967,67.3432,292.7983,0.0025193,0.00041643,0.0,0 STARLINK-4650,1 53611U 22104Z   23334.30882503  .00041643  00000-0  25193-2 0  9999,2 53611  53.2186   1.9967 0003999  67.3432 292.7983 15.10255540 69700,6913.557,95.348,538.187,532.657,0.0
53611.0,STARLINK-4650,PAYLOAD,2023-12-01 08:49:24,15.10340833,0.000414,53.2183,357.2309,68.8817,291.2618,0.0025252,0.00041842,0.0,0 STARLINK-4650,1 53611U 22104Z   23335.36764088  .00041842  00000-0  25252-2 0  9990,2 53611  53.2183 357.2309 0004140  68.8817 291.2618 15.10340833 69862,6913.297,95.343,538.024,532.3,0.0
53611.0,STARLINK-4650,PAYLOAD,2023-12-02 11:49:16,15.10505891,0.000419,53.2178,352.1761,73.5125,286.6328,0.0056868,0.0009575,0.0,0 STARLINK-4650,1 53611U 22104Z   23336.49254964  .00095750  00000-0  56868-2 0  9996,2 53611  53.2178 352.1761 0004190  73.5125 286.6328 15.10505891 70036,6912.793,95.332,537.555,531.762,0.0
53611.0,STARLINK-4650,PAYLOAD,2023-12-03 10:03:12,15.10520294,0.0004383,53.2177,348.0002,73.8486,286.299,0.001764,0.00029235,0.0,0 STARLINK-4650,1 53611U 22104Z   23337.41889750  .00029235  00000-0  17640-2 0  9996,2 53611  53.2177 348.0002 0004383  73.8486 286.2990 15.10520294 70174,6912.749,95.331,537.644,531.584,0.0
53611.0,STARLINK-4650,PAYLOAD,2023-12-04 14:38:12,15.10586463,0.0004565,53.2175,342.6398,75.4315,284.7184,0.0018008,0.00029909,0.0,0 STARLINK-4650,1 53611U 22104Z   23338.60986462  .00029909  00000-0  18008-2 0  9993,2 53611  53.2175 342.6398 0004565  75.4315 284.7184 15.10586463 71046,6912.547,95.327,537.568,531.257,0.0
53611.0,STARLINK-4650,PAYLOAD,2023-12-05 06:30:56,15.1062007,0.0004631,53.2175,339.6618,77.3997,282.7514,0.0016342,0.00027129,0.0,0 STARLINK-4650,1 53611U 22104Z   23339.27149078  .00027129  00000-0  16342-2 0  9992,2 53611  53.2175 339.6618 0004631  77.3997 282.7514 15.10620070 71147,6912.445,95.325,537.511,531.109,0.0
53611.0,STARLINK-4650,PAYLOAD,2023-12-06 09:30:33,15.10683736,0.0004809,53.2181,334.5992,78.8886,281.2648,0.001618,0.00026905,0.0,0 STARLINK-4650,1 53611U 22104Z   23340.39621763  .00026905  00000-0  16180-2 0  9994,2 53611  53.2181 334.5992 0004809  78.8886 281.2648 15.10683736 70625,6912.251,95.321,537.44,530.791,0.0
53611.0,STARLINK-4650,PAYLOAD,2023-12-07 06:09:01,15.10723538,0.0004842,53.2185,330.7265,83.3764,276.778,0.0012348,0.00020467,0.0,0 STARLINK-4650,1 53611U 22104Z   23341.25627243  .00020467  00000-0  12348-2 0  9998,2 53611  53.2185 330.7265 0004842  83.3764 276.7780 15.10723538 71445,6912.129,95.319,537.341,530.647,0.0
53611.0,STARLINK-4650,PAYLOAD,2023-12-08 09:08:32,15.10772557,0.0004867,53.2185,325.6623,86.4251,273.7299,0.001174,0.00019469,0.0,0 STARLINK-4650,1 53611U 22104Z   23342.38092670  .00019469  00000-0  11740-2 0  9998,2 53611  53.2185 325.6623 0004867  86.4251 273.7299 15.10772557 70927,6911.98,95.315,537.209,530.481,0.0
53611.0,STARLINK-4650,PAYLOAD,2023-12-09 08:57:27,15.1081633,0.0004907,53.2182,321.1948,88.348,271.8075,0.0011888,0.00019743,0.0,0 STARLINK-4650,1 53611U 22104Z   23343.37323851  .00019743  00000-0  11888-2 0  9994,2 53611  53.2182 321.1948 0004907  88.3480 271.8075 15.10816330 71767,6911.846,95.313,537.103,530.319,0.0
53611.0,STARLINK-4650,PAYLOAD,2023-12-10 07:11:05,15.10854558,0.0004918,53.2176,317.0245,91.1275,269.0281,0.0011032,0.00018316,0.0,0 STARLINK-4650,1 53611U 22104Z   23344.29937080  .00018316  00000-0  11032-2 0  9997,2 53611  53.2176 317.0245 0004918  91.1275 269.0281 15.10854558 71212,6911.73,95.31,536.994,530.195,0.0
53611.0,STARLINK-4650,PAYLOAD,2023-12-11 05:24:41,15.10891357,0.0004936,53.2174,312.8544,93.6103,266.5455,0.0011101,0.00018452,0.0,0 STARLINK-4650,1 53611U 22104Z   23345.22548072  .00018452  00000-0  11101-2 0  9998,2 53611  53.2174 312.8544 0004936  93.6103 266.5455 15.10891357 72047,6911.617,95.308,536.894,530.071,0.0
53611.0,STARLINK-4650,PAYLOAD,2023-12-12 03:38:15,15.10929946,0.0005016,53.2174,308.6816,94.5854,265.5712,0.0012002,0.00019999,0.0,0 STARLINK-4650,1 53611U 22104Z   23346.15156783  .00019999  00000-0  12002-2 0  9993,2 53611  53.2174 308.6816 0005016  94.5854 265.5712 15.10929946 71494,6911.5,95.306,536.831,529.898,0.0
53611.0,STARLINK-4650,PAYLOAD,2023-12-12 05:13:30,15.10932469,0.0005037,53.2174,308.3855,95.6369,264.5198,0.0012117,0.00020196,0.0,0 STARLINK-4650,1 53611U 22104Z   23346.21771614  .00020196  00000-0  12117-2 0  9994,2 53611  53.2174 308.3855 0005037  95.6369 264.5198 15.10932469 72199,6911.492,95.305,536.838,529.876,0.0
53611.0,STARLINK-4650,PAYLOAD,2023-12-13 05:02:17,15.10979584,0.0005096,53.2174,303.9196,98.9333,261.2237,0.0013306,0.00022242,0.0,0 STARLINK-4650,1 53611U 22104Z   23347.20992238  .00022242  00000-0  13306-2 0  9996,2 53611  53.2174 303.9196 0005096  98.9333 261.2237 15.10979584 71657,6911.348,95.302,536.735,529.691,0.0
53611.0,STARLINK-4650,PAYLOAD,2023-12-14 03:15:45,15.1103626,0.0005138,53.2174,299.7502,101.1721,258.985,0.0016521,0.00027753,0.0,0 STARLINK-4650,1 53611U 22104Z   23348.13594876  .00027753  00000-0  16521-2 0  9999,2 53611  53.2174 299.7502 0005138 101.1721 258.9850 15.11036260 71790,6911.175,95.299,536.591,529.489,0.0
53611.0,STARLINK-4650,PAYLOAD,2023-12-15 03:04:25,15.11111373,0.000568,53.2181,295.2827,114.1406,246.0181,0.0017805,0.00030007,0.0,0 STARLINK-4650,1 53611U 22104Z   23349.12807354  .00030007  00000-0  17805-2 0  9999,2 53611  53.2181 295.2827 0005680 114.1406 246.0181 15.11111373 71946,6910.946,95.294,536.737,528.886,0.0
53611.0,STARLINK-4650,PAYLOAD,2023-12-16 02:53:01,15.11188656,0.000533,53.218,290.8065,107.4772,252.6804,0.0021262,0.00035997,0.0,0 STARLINK-4650,1 53611U 22104Z   23350.12015173  .00035997  00000-0  21262-2 0  9996,2 53611  53.2180 290.8065 0005330 107.4772 252.6804 15.11188656 72093,6910.711,95.289,536.259,528.892,0.0
53611.0,STARLINK-4650,PAYLOAD,2023-12-17 01:06:18,15.11257244,0.0005341,53.2181,286.6351,108.7736,251.3837,0.001969,0.00033365,0.0,0 STARLINK-4650,1 53611U 22104Z   23351.04604566  .00033365  00000-0  19690-2 0  9997,2 53611  53.2181 286.6351 0005341 108.7736 251.3837 15.11257244 72925,6910.502,95.285,536.058,528.676,0.0
53611.0,STARLINK-4650,PAYLOAD,2023-12-18 00:54:44,15.11362486,0.0005408,53.2178,282.165,113.3954,246.7608,0.0031184,0.0005332,0.0,0 STARLINK-4650,1 53611U 22104Z   23352.03801927  .00053320  00000-0  31184-2 0  9992,2 53611  53.2178 282.1650 0005408 113.3954 246.7608 15.11362486 72381,6910.181,95.278,535.783,528.309,0.0
53611.0,STARLINK-4650,PAYLOAD,2023-12-18 21:32:38,15.1144857,0.0005532,53.2174,278.2901,118.2449,241.9104,0.0026923,0.00046058,0.0,0 STARLINK-4650,1 53611U 22104Z   23352.89767356  .00046058  00000-0  26923-2 0  9998,2 53611  53.2174 278.2901 0005532 118.2449 241.9104 15.11448570 73202,6909.919,95.273,535.606,527.961,0.0
53611.0,STARLINK-4650,PAYLOAD,2023-12-19 02:18:18,15.11469712,0.0005519,53.2173,277.3962,118.2558,241.8993,0.0027776,0.00047565,0.0,0 STARLINK-4650,1 53611U 22104Z   23353.09604855  .00047565  00000-0  27776-2 0  9996,2 53611  53.2173 277.3962 0005519 118.2558 241.8993 15.11469712 72546,6909.854,95.272,535.533,527.906,0.0
53611.0,STARLINK-4650,PAYLOAD,2023-12-20 00:31:20,15.11560268,0.0005605,53.2165,273.2235,123.0143,237.139,0.0021857,0.00037407,0.0,0 STARLINK-4650,1 53611U 22104Z   23354.02176131  .00037407  00000-0  21857-2 0  9999,2 53611  53.2165 273.2235 0005605 123.0143 237.1390 15.11560268 73374,6909.578,95.266,535.316,527.57,0.0
53611.0,STARLINK-4650,PAYLOAD,2023-12-20 22:44:16,15.11659857,0.0005537,53.2161,269.0512,124.9708,235.1806,0.0028106,0.00048395,0.0,0 STARLINK-4650,1 53611U 22104Z   23354.94741875  .00048395  00000-0  28106-2 0  9995,2 53611  53.2161 269.0512 0005537 124.9708 235.1806 15.11659857 73511,6909.275,95.26,534.965,527.314,0.0
53611.0,STARLINK-4650,PAYLOAD,2023-12-21 01:54:41,15.11670585,0.0005573,53.2161,268.4546,126.0492,234.1018,0.0027951,0.00048139,0.0,0 STARLINK-4650,1 53611U 22104Z   23355.07965080  .00048139  00000-0  27951-2 0  9999,2 53611  53.2161 268.4546 0005573 126.0492 234.1018 15.11670585 72844,6909.242,95.259,534.957,527.256,0.0
53611.0,STARLINK-4650,PAYLOAD,2023-12-21 22:32:20,15.11756379,0.0005653,53.2168,264.5774,127.1585,232.9926,0.0026734,0.00046128,0.0,0 STARLINK-4650,1 53611U 22104Z   23355.93912999  .00046128  00000-0  26734-2 0  9999,2 53611  53.2168 264.5774 0005653 127.1585 232.9926 15.11756379 73666,6908.981,95.253,534.751,526.94,0.0
